KUIPER-00044            
1 64505U 25134F   25327.45843216  .00003460  00000+0  48812-3 0  9995
2 64505  51.9013 356.3486 0011386 283.2823  76.6869 14.79432389 24157
KUIPER-00046            
1 64506U 25134G   25328.74304024  .00005769  00000+0  77810-3 0  9992
2 64506  51.9006 347.1096 0011992 296.8615  63.1121 14.80284047 24393
KUIPER-00047            
1 64507U 25134H   25328.28372272  .00004808  00000+0  61651-3 0  9991
2 64507  51.8993 321.1369 0007919 306.9189  53.1049 14.82771928 24711
KUIPER-00048            
1 64508U 25134J   25328.70779392 -.00011209  00000+0 -14499-2 0  9995
2 64508  51.9004 319.8138 0003507  77.5406 282.5948 14.79747407 24779
KUIPER-00049            
1 64509U 25134K   25328.01601297  .00000509  00000+0  95791-4 0  9993
2 64509  51.9004 336.3374 0002850 313.9273  46.1454 14.79947821 24481
KUIPER-00050            
1 64510U 25134L   25328.74671918  .00007939  00000+0  71586-3 0  9991
2 64510  51.8910 328.6871 0004735 337.3483  22.7277 14.96337327 24656
KUIPER-00051            
1 64511U 25134M   25328.22250475 -.00000333  00000+0 -14588-4 0  9999
2 64511  51.9034 332.9843 0001718 256.4967 103.5804 14.79968559 24548
KUIPER-00052            
1 64512U 25134N   25328.83337963  .00039732  00000+0  35495-3 0  9997
2 64512  51.8660 285.6927 0005464  26.0575  84.7444 15.67975761  3546
